[{"OBJECT_NAME":"STARLINK-30701","OBJECT_ID":"2023-148R","EPOCH":"2026-03-09T05:54:16.501248","MEAN_MOTION":15.30193645,"ECCENTRICITY":9.674e-5,"INCLINATION":53.1629,"RA_OF_ASC_NODE":26.3782,"ARG_OF_PERICENTER":83.9632,"MEAN_ANOMALY":276.1479,"EPHEMERIS_TYPE":0,"CLASSIFICATION_TYPE":"U","NORAD_CAT_ID":57950,"ELEMENT_SET_NO":999,"REV_AT_EPOCH":13835,"BSTAR":-8.976134e-6,"MEAN_MOTION_DOT":-6.25e-6,"MEAN_MOTION_DDOT":0},{"OBJECT_NAME":"PROTOMETHEE","OBJECT_ID":"2023-174BT","EPOCH":"2026-03-09T23:28:08.029344","MEAN_MOTION":15.30202663,"ECCENTRICITY":0.00088339,"INCLINATION":97.3826,"RA_OF_ASC_NODE":147.9552,"ARG_OF_PERICENTER":148.5993,"MEAN_ANOMALY":211.5776,"EPHEMERIS_TYPE":0,"CLASSIFICATION_TYPE":"U","NORAD_CAT_ID":58321,"ELEMENT_SET_NO":999,"REV_AT_EPOCH":12979,"BSTAR":0.00015715731,"MEAN_MOTION_DOT":4.52e-5,"MEAN_MOTION_DDOT":0}]
